MEAN_MOTION;ECCENTRICITY;INCLINATION;RA_OF_ASC_NODE;ARG_OF_PERICENTER;MEAN_ANOMALY;BSTAR;MEAN_MOTION_DOT;MEAN_MOTION_DDOT;TYPE
0.99328073;0.0004886;10.8742;35.7639;289.5227;269.5639;0;-3.28E-6;0;Intelsat
0.99327622;0.0004862;10.8755;35.7553;289.7003;296.5995;0;-3.25E-6;0;Intelsat
0.99327192;0.0004844;10.8764;35.7487;289.8523;241.6841;0;-3.2E-6;0;Intelsat
0.99326927;0.0004832;10.8771;35.7442;290.021;87.0192;0;-3.15E-6;0;Intelsat
0.99326701;0.0004826;10.8777;35.7402;289.9956;266.585;0;-3.1E-6;0;Intelsat
0.99326414;0.0004813;10.8782;35.7363;290.1743;85.9985;0;-3.04E-6;0;Intelsat
0.99325641;0.0004802;10.8799;35.7246;290.3811;264.5146;0;-2.8E-6;0;Intelsat
0.99325151;0.0004794;10.881;35.7173;290.5751;237.8421;0;-2.62E-6;0;Intelsat
0.99325121;0.0004795;10.8811;35.7168;290.6031;263.4248;0;-2.61E-6;0;Intelsat
0.99324607;0.0004786;10.8822;35.7091;290.9118;262.2497;0;-2.39E-6;0;Intelsat
0.9932408;0.0004778;10.8833;35.7013;291.1912;261.1066;0;-2.15E-6;0;Intelsat
0.99323592;0.0004776;10.8845;35.6937;291.5193;259.9283;0;-1.89E-6;0;Intelsat
0.99323157;0.0004767;10.8856;35.686;291.9655;258.5982;0;-1.62E-6;0;Intelsat
0.99323157;0.0004767;10.8856;35.686;291.9655;258.5982;0;-1.62E-6;0;Intelsat
0.99322718;0.0004756;10.8867;35.6784;292.4573;257.2576;0;-1.35E-6;0;Intelsat
0.99322526;0.0004746;10.8873;35.6746;292.6779;76.6107;0;-1.21E-6;0;Intelsat
0.9932233;0.0004751;10.8878;35.6711;292.8598;243.045;0;-1.08E-6;0;Intelsat
0.99322048;0.0004738;10.8889;35.6638;293.3414;228.9616;0;-8.1E-7;0;Intelsat
0.99322004;0.0004736;10.889;35.6632;293.4366;254.5056;0;-7.9E-7;0;Intelsat
0.99321861;0.0004725;10.8896;35.6595;293.6973;73.7836;0;-6.5E-7;0;Intelsat
0.99321749;0.0004722;10.8901;35.6557;293.9868;253.0779;0;-5.2E-7;0;Intelsat
0.99321566;0.0004707;10.8912;35.6485;294.5279;236.7016;0;-2.7E-7;0;Intelsat
0.99321555;0.0004706;10.8913;35.6482;294.5572;251.6343;0;-2.6E-7;0;Intelsat
0.99321388;0.0004685;10.8925;35.6401;295.1843;276.9207;0;0;0;Intelsat
0.99321351;0.0004662;10.8936;35.6332;295.7627;248.6639;0;2.0E-7;0;Intelsat
0.99321358;0.0004657;10.8938;35.632;295.8374;308.765;0;2.4E-7;0;Intelsat
0.9932133;0.0004647;10.8941;35.6295;296.0629;67.9427;0;3.1E-7;0;Intelsat
0.99321319;0.0004636;10.8947;35.6257;296.3546;247.2103;0;4.0E-7;0;Intelsat
0.99321405;0.0004608;10.8959;35.6183;296.9526;245.7154;0;5.7E-7;0;Intelsat
0.99321515;0.0004577;10.897;35.6109;297.5314;244.2564;0;7.1E-7;0;Intelsat
0.99321515;0.0004577;10.897;35.6109;297.5314;244.2564;0;7.1E-7;0;Intelsat
0.99321722;0.0004542;10.8982;35.6033;298.0702;251.2956;0;8.2E-7;0;Intelsat
0.99321993;0.0004504;10.8994;35.5958;298.6266;255.5607;0;8.9E-7;0;Intelsat
0.99321993;0.0004504;10.8994;35.5958;298.6266;255.5607;0;8.9E-7;0;Intelsat
0.9932228;0.0004472;10.9004;35.5889;299.0317;226.2463;0;9.2E-7;0;Intelsat
0.99322638;0.0004434;10.9016;35.5811;299.4266;238.8664;0;9.1E-7;0;Intelsat
0.99322644;0.0004433;10.9016;35.5808;299.4153;255.721;0;9.1E-7;0;Intelsat
0.99323025;0.000439;10.9027;35.5736;299.843;237.6012;0;8.7E-7;0;Intelsat
0.99323049;0.0004386;10.9027;35.5732;299.8717;256.747;0;8.6E-7;0;Intelsat
0.99323507;0.0004343;10.9039;35.565;300.1733;279.4332;0;7.8E-7;0;Intelsat
0.99324352;0.0004283;10.906;35.5506;300.4032;234.4332;0;5.4E-7;0;Intelsat
0.99324841;0.0004251;10.9071;35.543;300.5979;233.3884;0;3.8E-7;0;Intelsat
0.99324868;0.0004247;10.9072;35.5424;300.6112;261.5035;0;3.6E-7;0;Intelsat
0.99325616;0.0004223;10.9089;35.5311;300.8086;77.5195;0;9.0E-8;0;Intelsat
0.99325807;0.0004211;10.9093;35.5279;300.7362;231.5327;0;0;0;Intelsat
0.99326476;0.0004176;10.9111;35.516;301.0638;75.5244;0;-3.2E-7;0;Intelsat
0.99326915;0.0004155;10.9122;35.5085;301.1886;74.5576;0;-5.3E-7;0;Intelsat
0.99327229;0.0004146;10.913;35.503;301.2807;340.5227;0;-6.9E-7;0;Intelsat
0.99327332;0.0004142;10.9133;35.5011;301.3448;73.5463;0;-7.5E-7;0;Intelsat
0.99327534;0.0004135;10.9138;35.4973;301.4783;252.9704;0;-8.5E-7;0;Intelsat
0.99327872;0.0004126;10.9149;35.4899;301.7348;251.8868;0;-1.07E-6;0;Intelsat
0.9932818;0.0004119;10.916;35.4823;302.0007;257.6774;0;-1.28E-6;0;Intelsat
0.99328232;0.0004111;10.9163;35.4805;302.1395;346.6027;0;-1.33E-6;0;Intelsat
0.99328447;0.0004101;10.9172;35.4747;302.448;267.8548;0;-1.48E-6;0;Intelsat
0.99328658;0.0004089;10.9182;35.4676;302.8172;248.251;0;-1.66E-6;0;Intelsat
0.99328807;0.0004085;10.9191;35.4617;303.0833;174.2719;0;-1.8E-6;0;Intelsat
0.99328823;0.0004081;10.9195;35.4591;303.2994;302.1708;0;-1.86E-6;0;Intelsat
0.99328942;0.0004068;10.9204;35.4528;303.7042;245.6649;0;-2.0E-6;0;Intelsat
0.99328988;0.0004046;10.9215;35.4455;304.295;244.2115;0;-2.15E-6;0;Intelsat
0.99328966;0.0004004;10.9235;35.4325;305.2819;157.4891;0;-2.36E-6;0;Intelsat
0.99328962;0.0003991;10.9238;35.4308;305.4639;241.3471;0;-2.38E-6;0;Intelsat
0.9932886;0.0003962;10.9249;35.4235;306.0836;239.9042;0;-2.47E-6;0;Intelsat
0.9932871;0.0003922;10.926;35.416;306.7241;247.0437;0;-2.55E-6;0;Intelsat
0.99328605;0.0003878;10.9271;35.4089;307.3931;236.8498;0;-2.59E-6;0;Intelsat
0.9932839;0.0003832;10.9283;35.4012;308.0021;255.11;0;-2.63E-6;0;Intelsat
0.9932815;0.0003796;10.9293;35.3945;308.5232;223.1278;0;-2.65E-6;0;Intelsat
0.99327913;0.0003747;10.9304;35.3864;309.0758;252.7012;0;-2.66E-6;0;Intelsat
0.99327595;0.0003679;10.9315;35.3791;309.7524;248.6212;0;-2.64E-6;0;Intelsat
0.99327245;0.0003625;10.9326;35.3715;310.2692;259.5647;0;-2.62E-6;0;Intelsat
0.9932659;0.0003576;10.9347;35.3567;310.3768;246.4774;0;-2.53E-6;0;Intelsat
0.99326205;0.0003542;10.9357;35.3496;310.4526;226.9573;0;-2.47E-6;0;Intelsat
0.99326178;0.0003543;10.9358;35.3493;310.4818;243.4613;0;-2.46E-6;0;Intelsat
0.99325852;0.0003501;10.9369;35.3415;310.506;254.4356;0;-2.38E-6;0;Intelsat
0.99325434;0.0003474;10.9379;35.3342;310.4707;242.6336;0;-2.28E-6;0;Intelsat
0.99325067;0.0003444;10.939;35.3271;310.4372;224.3769;0;-2.16E-6;0;Intelsat
0.9932469;0.0003436;10.9401;35.3191;310.2014;249.3247;0;-2.02E-6;0;Intelsat
0.99324333;0.0003404;10.9412;35.3112;310.305;272.7592;0;-1.86E-6;0;Intelsat
0.99323974;0.0003377;10.9424;35.3033;310.4871;297.6628;0;-1.68E-6;0;Intelsat
0.9932369;0.0003363;10.9433;35.2969;310.5017;246.4829;0;-1.52E-6;0;Intelsat
0.99323415;0.0003355;10.9443;35.2901;310.502;219.9701;0;-1.35E-6;0;Intelsat
0.99323154;0.0003382;10.9453;35.2827;310.4027;219.2184;0;-1.16E-6;0;Intelsat
0.99323086;0.0003363;10.9455;35.2812;310.7616;292.3061;0;-1.12E-6;0;Intelsat
0.99322912;0.0003351;10.9463;35.2753;310.8265;217.9245;0;-9.6E-7;0;Intelsat
0.99322682;0.0003335;10.9475;35.2668;311.348;274.9419;0;-7.4E-7;0;Intelsat
0.9932253;0.0003324;10.9484;35.2606;311.5061;214.2821;0;-5.7E-7;0;Intelsat
0.99322469;0.0003319;10.9489;35.2569;311.768;34.6998;0;-4.7E-7;0;Intelsat
0.99322432;0.0003314;10.9497;35.2518;312.1644;276.3594;0;-3.4E-7;0;Intelsat
0.99322391;0.0003302;10.95;35.2495;312.4391;33.261;0;-2.8E-7;0;Intelsat
0.99322319;0.0003288;10.9511;35.2417;312.9527;47.4729;0;-8.0E-8;0;Intelsat
0.99322337;0.0003273;10.9522;35.2343;313.2541;46.7308;0;9.0E-8;0;Intelsat
0.99322361;0.0003255;10.9532;35.227;313.7055;43.8511;0;2.6E-7;0;Intelsat
0.99322411;0.0003244;10.9539;35.2218;314.089;293.2144;0;3.6E-7;0;Intelsat
0.99322483;0.0003212;10.9549;35.2153;314.6153;250.9027;0;4.8E-7;0;Intelsat
0.99322728;0.000316;10.9563;35.2048;315.2968;40.9363;0;6.4E-7;0;Intelsat
0.99322855;0.0003139;10.957;35.2002;315.6587;263.0432;0;6.9E-7;0;Intelsat
0.99322937;0.0003131;10.9573;35.1975;315.7641;38.0426;0;7.2E-7;0;Intelsat
0.99323074;0.0003102;10.9579;35.1933;316.1243;240.5347;0;7.6E-7;0;Intelsat
0.99323465;0.0003041;10.9594;35.1824;316.5976;44.2782;0;8.0E-7;0;Intelsat
0.99324218;0.0002948;10.9615;35.1674;317.1598;44.4028;0;7.6E-7;0;Intelsat
0.99324582;0.0002898;10.9625;35.1597;317.3261;43.4577;0;6.9E-7;0;Intelsat
0.99324991;0.0002855;10.9635;35.1521;317.418;42.5124;0;5.9E-7;0;Intelsat
0.99325261;0.0002815;10.9641;35.1474;317.4266;259.7421;0;5.2E-7;0;Intelsat
0.99325645;0.0002784;10.9651;35.1404;317.3926;232.0788;0;3.9E-7;0;Intelsat
0.9932585;0.0002777;10.9656;35.1368;317.3461;40.842;0;3.1E-7;0;Intelsat
0.99326283;0.0002727;10.9666;35.1291;317.1808;40.169;0;1.4E-7;0;Intelsat
0.99326565;0.00027;10.9673;35.1239;316.9276;285.8681;0;2.0E-8;0;Intelsat
0.99326708;0.0002696;10.9676;35.1215;316.9561;39.5167;0;-4.0E-8;0;Intelsat
0.99326958;0.0002675;10.9681;35.1176;316.7239;225.3634;0;-1.5E-7;0;Intelsat
0.99327585;0.0002632;10.9697;35.1064;316.3528;38.4038;0;-4.6E-7;0;Intelsat
0.99327977;0.0002617;10.9707;35.0989;316.088;37.8405;0;-6.9E-7;0;Intelsat
0.99328179;0.0002613;10.9712;35.0947;315.98;238.3475;0;-8.2E-7;0;Intelsat
0.99328506;0.00026;10.9722;35.0876;315.8276;219.9515;0;-1.04E-6;0;Intelsat
0.99328682;0.0002593;10.9727;35.0839;315.748;36.448;0;-1.16E-6;0;Intelsat
0.99328988;0.000258;10.9737;35.0763;315.6736;35.6793;0;-1.4E-6;0;Intelsat
0.99329189;0.0002576;10.9742;35.0719;315.7288;240.8231;0;-1.54E-6;0;Intelsat
0.99329289;0.0002564;10.9747;35.0687;315.6765;34.8366;0;-1.64E-6;0;Intelsat
0.99329474;0.0002548;10.9757;35.0611;315.777;33.8857;0;-1.87E-6;0;Intelsat
0.9932958;0.0002544;10.9762;35.0568;315.9098;238.9452;0;-2.0E-6;0;Intelsat
0.99329669;0.0002537;10.9768;35.0531;315.9869;58.4521;0;-2.11E-6;0;Intelsat
0.9932976;0.0002523;10.9778;35.0461;316.2833;31.6829;0;-2.31E-6;0;Intelsat
0.99329818;0.000252;10.9784;35.0415;316.5035;250.3913;0;-2.43E-6;0;Intelsat
0.99329843;0.0002509;10.9788;35.0385;316.5609;30.5664;0;-2.5E-6;0;Intelsat
0.99329851;0.0002504;10.9794;35.0339;316.8087;251.5333;0;-2.61E-6;0;Intelsat
0.99329798;0.000247;10.9808;35.0235;317.3191;28.1085;0;-2.83E-6;0;Intelsat
0.99329807;0.0002477;10.9809;35.0229;317.4355;53.6041;0;-2.84E-6;0;Intelsat
0.9932969;0.0002453;10.9819;35.0158;317.8921;37.5121;0;-2.96E-6;0;Intelsat
0.99329524;0.0002428;10.9829;35.008;318.3435;51.0127;0;-3.06E-6;0;Intelsat
0.99329405;0.000242;10.9835;35.0042;318.6771;232.9613;0;-3.11E-6;0;Intelsat
0.99329148;0.0002391;10.9845;34.9967;319.0696;227.6615;0;-3.17E-6;0;Intelsat
0.99328874;0.0002354;10.9855;34.9892;319.4719;227.7292;0;-3.2E-6;0;Intelsat
0.99328553;0.0002316;10.9866;34.9816;319.793;226.5379;0;-3.21E-6;0;Intelsat
